[{"OBJECT_NAME":"STARLINK-31875","OBJECT_ID":"2024-084W","EPOCH":"2026-03-09T07:00:34.404768","MEAN_MOTION":15.27574094,"ECCENTRICITY":0.00011017,"INCLINATION":43.0042,"RA_OF_ASC_NODE":40.465,"ARG_OF_PERICENTER":280.4171,"MEAN_ANOMALY":79.6557,"EPHEMERIS_TYPE":0,"CLASSIFICATION_TYPE":"U","NORAD_CAT_ID":59674,"ELEMENT_SET_NO":999,"REV_AT_EPOCH":10435,"BSTAR":-1.5010325e-5,"MEAN_MOTION_DOT":-6.75e-6,"MEAN_MOTION_DDOT":0},{"OBJECT_NAME":"FLOCK 4G-1","OBJECT_ID":"2025-009BK","EPOCH":"2026-03-09T18:13:41.778912","MEAN_MOTION":15.27421081,"ECCENTRICITY":0.00031801,"INCLINATION":97.4059,"RA_OF_ASC_NODE":151.3158,"ARG_OF_PERICENTER":323.1401,"MEAN_ANOMALY":36.9619,"EPHEMERIS_TYPE":0,"CLASSIFICATION_TYPE":"U","NORAD_CAT_ID":62666,"ELEMENT_SET_NO":999,"REV_AT_EPOCH":6372,"BSTAR":0.00050653644,"MEAN_MOTION_DOT":0.00013534,"MEAN_MOTION_DDOT":0}]
